OBJECT_NAME,OBJECT_ID,EPOCH,MEAN_MOTION,ECCENTRICITY,INCLINATION,RA_OF_ASC_NODE,ARG_OF_PERICENTER,MEAN_ANOMALY,EPHEMERIS_TYPE,CLASSIFICATION_TYPE,NORAD_CAT_ID,ELEMENT_SET_NO,REV_AT_EPOCH,BSTAR,MEAN_MOTION_DOT,MEAN_MOTION_DDOT
ATLAS CENTAUR 2,1963-047A,2026-07-23T06:03:14.063040,14.12572976,.05456796,30.3538,157.6920,195.5901,162.7264,0,U,694,999,15080,.83246675E-4,.803E-5,0
THOR AGENA D R/B,1964-002A,2026-07-23T07:09:25.126272,14.34078653,.00321272,99.1155,224.9779,222.2806,137.5900,0,U,733,999,25773,.68075591E-4,.142E-5,0
SL-3 R/B,1964-053B,2026-07-23T06:08:56.137056,14.61442682,.00799679,65.0776,293.7539,249.7714,109.4775,0,U,877,999,28660,.44944504E-4,.107E-5,0
SL-8 R/B,1967-045B,2026-07-23T03:19:39.735840,14.45698586,.00631271,74.0109,95.1133,69.5443,291.2477,0,U,2802,999,10859,.67004546E-4,.215E-5,0
SL-8 R/B,1968-040B,2026-07-23T05:42:51.851232,15.03970310,.00246218,74.0292,36.5504,182.7412,177.3646,0,U,3230,999,11038,.17024217E-3,.2323E-4,0
OAO 2,1968-110A,2026-07-23T03:12:37.663200,14.47363650,.00057273,34.9919,228.9671,208.9880,151.0494,0,U,3597,999,3873,.4051902E-4,.132E-5,0
ISIS 1,1969-009A,2026-07-23T05:14:17.427264,11.30437550,.17072568,88.4457,140.4441,175.4601,186.4466,0,U,3669,999,36384,.52279312E-4,.87E-6,0
SERT 2,1970-009A,2026-07-23T06:46:10.261344,13.58741529,.00048857,99.2839,140.0585,168.1284,347.1207,0,U,4327,999,79830,.50941327E-4,-.4E-7,0
SL-3 R/B,1971-028B,2026-07-23T05:21:10.698336,15.73139255,.00147663,81.2298,243.1289,154.8356,205.3627,0,U,5118,999,990,.4084391E-3,.56568E-3,0
ASTEX 1,1971-089A,2026-07-23T05:05:21.219360,14.50876468,.00152123,92.7014,195.4592,355.9379,4.1701,0,U,5560,999,88195,.10152146E-3,.4E-5,0
SL-8 R/B,1971-119B,2026-07-23T05:19:17.214528,14.39818541,.05422811,73.8871,281.9022,220.6089,135.3423,0,U,5730,999,67498,.39263035E-3,.7695E-4,0
OAO 3 (COPERNICUS),1972-065A,2026-07-23T06:37:39.062784,14.60077655,.00066896,35.0047,244.7716,195.0114,234.8122,0,U,6153,999,86602,.46753705E-4,.207E-5,0
ATLAS CENTAUR R/B,1972-065B,2026-07-23T03:34:50.564640,14.77973096,.00329421,34.9998,231.7061,70.3742,290.0510,0,U,6155,999,86131,.84999612E-4,.603E-5,0
SL-8 R/B,1975-112B,2026-07-23T03:22:43.294368,14.38261004,.0015896,74.0613,129.7322,190.7541,169.3276,0,U,8459,999,65134,.70676552E-4,.189E-5,0
SL-3 R/B,1977-057B,2026-07-23T05:12:44.946432,15.48532249,.00079345,97.5858,22.5253,143.0389,217.1409,0,U,10114,999,68928,.20457229E-3,.10806E-3,0
SEASAT 1,1978-064A,2026-07-23T03:18:09.448704,14.46262996,.00010318,108.0178,49.7589,268.0190,92.0838,0,U,10967,999,52609,.66417425E-4,.1E-5,0
SL-14 R/B,1979-011B,2026-07-23T07:45:30.715488,14.92043359,.00150676,82.5262,327.8606,329.1885,30.8449,0,U,11267,999,54900,.43466307E-4,.467E-5,0
SL-8 R/B,1979-089B,2026-07-23T06:29:13.693632,14.42416339,.0016334,74.0672,200.0598,333.2265,26.8047,0,U,11574,999,45565,.44210539E-4,.12E-5,0
SL-14 R/B,1980-005B,2026-07-23T05:23:15.076320,14.91055530,.00172803,82.5146,178.6555,73.2119,287.0994,0,U,11672,999,49668,.47072433E-4,.493E-5,0
SL-8 R/B,1981-003B,2026-07-22T21:22:47.384544,15.15335080,.02488388,82.9386,164.5772,66.9357,295.7901,0,U,12139,999,33512,.6519034E-3,.27512E-3,0
SL-3 R/B,1981-046B,2026-07-23T06:34:14.420928,15.44916109,.0015635,81.2310,126.5752,265.8744,94.0713,0,U,12465,999,45934,.25001655E-3,.11839E-3,0
SL-3 R/B,1981-103B,2026-07-23T06:26:56.366016,15.22530692,.00126236,81.1571,54.2314,183.6571,176.4571,0,U,12904,999,99385,.18126387E-3,.4236E-4,0
SL-3 R/B,1982-013B,2026-07-23T03:55:06.680064,15.23003703,.0022885,81.1746,1.8191,82.9272,277.4562,0,U,13068,999,42496,.14716212E-3,.3511E-4,0
SL-3 R/B,1982-039B,2026-07-23T06:23:56.323104,15.10726888,.00291512,81.1515,59.4080,231.2804,128.5815,0,U,13154,999,40210,.12211087E-3,.2067E-4,0
SL-3 R/B,1982-079B,2026-07-23T04:22:12.997632,15.26069009,.00247859,81.1453,32.8974,67.7327,292.6532,0,U,13403,999,39835,.18049477E-3,.4717E-4,0
SL-14 R/B,1982-092B,2026-07-22T10:42:05.249376,14.86768555,.00194851,82.5674,15.3042,210.2959,172.3018,0,U,13553,999,34895,.36970127E-4,.355E-5,0
SL-3 R/B,1983-010B,2026-07-23T00:35:40.452000,15.50066300,.00128148,81.1003,195.7962,293.2241,66.7656,0,U,13819,999,37888,.26675873E-3,.1507E-3,0
SL-3 R/B,1983-075B,2026-07-23T07:22:33.435552,15.41100669,.00224462,97.6114,214.3040,102.9627,257.4128,0,U,14208,999,35102,.25711161E-3,.10643E-3,0
COSMOS 1536,1984-013A,2026-07-23T07:27:53.781696,15.25418532,.00146613,82.5460,332.8557,160.1726,200.0085,0,U,14699,999,29328,.27056714E-3,.6888E-4,0
SL-14 R/B,1984-027B,2026-07-23T04:05:59.065728,14.86082818,.00164727,82.5429,117.9753,242.6342,117.3199,0,U,14820,999,26775,.32898821E-4,.313E-5,0
