ATLAS CENTAUR 2         
1 00694U 63047A   26204.25224610  .00000803  00000+0  83247-4 0  9993
2 00694  30.3538 157.6920 0545679 195.5901 162.7264 14.12572976150805
THOR AGENA D R/B        
1 00733U 64002A   26204.29820748  .00000142  00000+0  68076-4 0  9996
2 00733  99.1155 224.9779 0032127 222.2806 137.5900 14.34078653257732
SL-3 R/B                
1 00877U 64053B   26204.25620529  .00000107  00000+0  44945-4 0  9992
2 00877  65.0776 293.7539 0079967 249.7714 109.4775 14.61442682286608
SL-8 R/B                
1 02802U 67045B   26204.13865435  .00000215  00000+0  67005-4 0  9992
2 02802  74.0109  95.1133 0063127  69.5443 291.2477 14.45698586108598
SL-8 R/B                
1 03230U 68040B   26204.23810013  .00002323  00000+0  17024-3 0  9994
2 03230  74.0292  36.5504 0024621 182.7412 177.3646 15.03970310110383
OAO 2                   
1 03597U 68110A   26204.13376925  .00000132  00000+0  40519-4 0  9998
2 03597  34.9919 228.9671 0005727 208.9880 151.0494 14.47363650 38736
ISIS 1                  
1 03669U 69009A   26204.21825726  .00000087  00000+0  52279-4 0  9998
2 03669  88.4457 140.4441 1707256 175.4601 186.4466 11.30437550363840
SERT 2                  
1 04327U 70009A   26204.28206321 -.00000004  00000+0  50941-4 0  9997
2 04327  99.2839 140.0585 0004885 168.1284 347.1207 13.58741529798302
SL-3 R/B                
1 05118U 71028B   26204.22304049  .00056568  00000+0  40844-3 0  9993
2 05118  81.2298 243.1289 0014766 154.8356 205.3627 15.73139255  9906
ASTEX 1                 
1 05560U 71089A   26204.21205115  .00000400  00000+0  10152-3 0  9997
2 05560  92.7014 195.4592 0015212 355.9379   4.1701 14.50876468881951
SL-8 R/B                
1 05730U 71119B   26204.22172702  .00007695  00000+0  39263-3 0  9993
2 05730  73.8871 281.9022 0542281 220.6089 135.3423 14.39818541674983
OAO 3 (COPERNICUS)      
1 06153U 72065A   26204.27614656  .00000207  00000+0  46754-4 0  9994
2 06153  35.0047 244.7716 0006689 195.0114 234.8122 14.60077655866022
ATLAS CENTAUR R/B       
1 06155U 72065B   26204.14919635  .00000603  00000+0  85000-4 0  9994
2 06155  34.9998 231.7061 0032942  70.3742 290.0510 14.77973096861313
SL-8 R/B                
1 08459U 75112B   26204.14077887  .00000189  00000+0  70677-4 0  9996
2 08459  74.0613 129.7322 0015896 190.7541 169.3276 14.38261004651343
SL-3 R/B                
1 10114U 77057B   26204.21718688  .00010806  00000+0  20457-3 0  9993
2 10114  97.5858  22.5253 0007934 143.0389 217.1409 15.48532249689281
SEASAT 1                
1 10967U 78064A   26204.13760936  .00000100  00000+0  66417-4 0  9995
2 10967 108.0178  49.7589 0001031 268.0190  92.0838 14.46262996526094
SL-14 R/B               
1 11267U 79011B   26204.32327217  .00000467  00000+0  43466-4 0  9999
2 11267  82.5262 327.8606 0015067 329.1885  30.8449 14.92043359549007
SL-8 R/B                
1 11574U 79089B   26204.27029738  .00000120  00000+0  44211-4 0  9991
2 11574  74.0672 200.0598 0016334 333.2265  26.8047 14.42416339455650
SL-14 R/B               
1 11672U 80005B   26204.22448005  .00000493  00000+0  47072-4 0  9998
2 11672  82.5146 178.6555 0017280  73.2119 287.0994 14.91055530496688
SL-8 R/B                
1 12139U 81003B   26203.89082621  .00027512  00000+0  65190-3 0  9997
2 12139  82.9386 164.5772 0248838  66.9357 295.7901 15.15335080335123
SL-3 R/B                
1 12465U 81046B   26204.27377802  .00011839  00000+0  25002-3 0  9990
2 12465  81.2310 126.5752 0015635 265.8744  94.0713 15.44916109459348
SL-3 R/B                
1 12904U 81103B   26204.26870794  .00004236  00000+0  18126-3 0  9991
2 12904  81.1571  54.2314 0012623 183.6571 176.4571 15.22530692993855
SL-3 R/B                
1 13068U 82013B   26204.16327176  .00003511  00000+0  14716-3 0  9990
2 13068  81.1746   1.8191 0022885  82.9272 277.4562 15.23003703424964
SL-3 R/B                
1 13154U 82039B   26204.26662411  .00002067  00000+0  12211-3 0  9992
2 13154  81.1515  59.4080 0029151 231.2804 128.5815 15.10726888402104
SL-3 R/B                
1 13403U 82079B   26204.18209488  .00004717  00000+0  18049-3 0  9994
2 13403  81.1453  32.8974 0024785  67.7327 292.6532 15.26069009398351
SL-14 R/B               
1 13553U 82092B   26203.44589409  .00000355  00000+0  36970-4 0  9995
2 13553  82.5674  15.3042 0019485 210.2959 172.3018 14.86768555348957
SL-3 R/B                
1 13819U 83010B   26204.02477375  .00015070  00000+0  26676-3 0  9995
2 13819  81.1003 195.7962 0012814 293.2241  66.7656 15.50066300378881
SL-3 R/B                
1 14208U 83075B   26204.30733143  .00010643  00000+0  25711-3 0  9998
2 14208  97.6114 214.3040 0022446 102.9627 257.4128 15.41100669351027
COSMOS 1536             
1 14699U 84013A   26204.31103914  .00006888  00000+0  27057-3 0  9994
2 14699  82.5460 332.8557 0014661 160.1726 200.0085 15.25418532293285
SL-14 R/B               
1 14820U 84027B   26204.17082252  .00000313  00000+0  32899-4 0  9998
2 14820  82.5429 117.9753 0016472 242.6342 117.3199 14.86082818267757
